CZ-2D R/B               
1 65853U 25222C   25300.20765620  .00002850  00000+0  22303-3 0  9995
2 65853  34.9022 218.1253 0056591 217.7856 141.8868 14.99322272  4228
STARLINK-35208          
1 65854U 25223A   25300.25002315  .00063466  00000+0  15859-2 0  9994
2 65854  53.1585 196.7456 0000831  94.9006  10.9581 15.39572668  5017
STARLINK-35200          
1 65855U 25223B   25300.21448259  .00048767  00000+0  87870-3 0  9992
2 65855  53.1591 196.7302 0000910 100.1053 260.0059 15.49332315  3734
STARLINK-35459          
1 65856U 25223C   25300.25002315 -.02378228  00000+0 -60682-1 0  9998
2 65856  53.1586 196.5974 0001625 108.5188  71.7961 15.42504119  5015
STARLINK-35489          
1 65857U 25223D   25300.27830419  .00072725  00000+0  13020-2 0  9999
2 65857  53.1592 196.4176 0001231  99.1773 260.9375 15.49341918  3746
STARLINK-35199          
1 65858U 25223E   25300.21351644 -.00271177  00000+0 -51150-2 0  9992
2 65858  53.1590 196.7237 0001026 108.8855 251.2266 15.48882711  3738
STARLINK-35408          
1 65859U 25223F   25300.25002315  .00047805  00000+0  11991-2 0  9991
2 65859  53.1584 196.6937 0001294  92.9720  38.6378 15.39581090  5019
STARLINK-35303          
1 65860U 25223G   25300.25002315 -.02048311  00000+0 -49195-1 0  9996
2 65860  53.1582 196.5589 0001155  79.7219 120.3158 15.44331615  5010
STARLINK-35258          
1 65861U 25223H   25300.21310671  .00104795  00000+0  18640-2 0  9997
2 65861  53.1587 196.7203 0000146  69.4227 290.6797 15.49356041  3737
STARLINK-35386          
1 65862U 25223J   25300.21173351  .00058742  00000+0  10548-2 0  9999
2 65862  53.1592 196.7113 0001116  93.0338 267.0799 15.49348657  3732
STARLINK-35469          
1 65863U 25223K   25300.25002315  .00051137  00000+0  12817-2 0  9997
2 65863  53.1584 196.6419 0001277  95.3041  62.0907 15.39575207  5015
STARLINK-35471          
1 65864U 25223L   25300.27589928  .00066127  00000+0  11857-2 0  9998
2 65864  53.1587 196.4004 0001178  94.2389 265.8754 15.49339316  3741
