CCSDS_OMM_VERS = 2.0
CREATION_DATE  = 
ORIGINATOR     = 

OBJECT_NAME    = CZ-2D R/B
OBJECT_ID      = 2025-222C
CENTER_NAME    = EARTH
REF_FRAME      = TEME
TIME_SYSTEM    = UTC
MEAN_ELEMENT_THEORY = SGP/SGP4

EPOCH          = 2025-10-27T04:59:01.495680
MEAN_MOTION    = 14.99322272
ECCENTRICITY   = .00565913
INCLINATION    = 34.9022
RA_OF_ASC_NODE = 218.1253
ARG_OF_PERICENTER = 217.7856
MEAN_ANOMALY   = 141.8868

EPHEMERIS_TYPE = 0
CLASSIFICATION_TYPE = U
NORAD_CAT_ID   = 65853
ELEMENT_SET_NO = 999
REV_AT_EPOCH   = 422
BSTAR          = .22302943E-3
MEAN_MOTION_DOT = .285E-4
MEAN_MOTION_DDOT = 0

CCSDS_OMM_VERS = 2.0
CREATION_DATE  = 
ORIGINATOR     = 

OBJECT_NAME    = STARLINK-35208
OBJECT_ID      = 2025-223A
CENTER_NAME    = EARTH
REF_FRAME      = TEME
TIME_SYSTEM    = UTC
MEAN_ELEMENT_THEORY = SGP/SGP4

EPOCH          = 2025-10-27T06:00:02.000160
MEAN_MOTION    = 15.39572668
ECCENTRICITY   = .00008317
INCLINATION    = 53.1585
RA_OF_ASC_NODE = 196.7456
ARG_OF_PERICENTER = 94.9006
MEAN_ANOMALY   = 10.9581

EPHEMERIS_TYPE = 0
CLASSIFICATION_TYPE = U
NORAD_CAT_ID   = 65854
ELEMENT_SET_NO = 999
REV_AT_EPOCH   = 501
BSTAR          = .15859189E-2
MEAN_MOTION_DOT = .63466E-3
MEAN_MOTION_DDOT = 0

CCSDS_OMM_VERS = 2.0
CREATION_DATE  = 
ORIGINATOR     = 

OBJECT_NAME    = STARLINK-35200
OBJECT_ID      = 2025-223B
CENTER_NAME    = EARTH
REF_FRAME      = TEME
TIME_SYSTEM    = UTC
MEAN_ELEMENT_THEORY = SGP/SGP4

EPOCH          = 2025-10-27T05:08:51.295776
MEAN_MOTION    = 15.49332315
ECCENTRICITY   = .00009101
INCLINATION    = 53.1591
RA_OF_ASC_NODE = 196.7302
ARG_OF_PERICENTER = 100.1053
MEAN_ANOMALY   = 260.0059

EPHEMERIS_TYPE = 0
CLASSIFICATION_TYPE = U
NORAD_CAT_ID   = 65855
ELEMENT_SET_NO = 999
REV_AT_EPOCH   = 373
BSTAR          = .8787047E-3
MEAN_MOTION_DOT = .48767E-3
MEAN_MOTION_DDOT = 0

CCSDS_OMM_VERS = 2.0
CREATION_DATE  = 
ORIGINATOR     = 

OBJECT_NAME    = STARLINK-35459
OBJECT_ID      = 2025-223C
CENTER_NAME    = EARTH
REF_FRAME      = TEME
TIME_SYSTEM    = UTC
MEAN_ELEMENT_THEORY = SGP/SGP4

EPOCH          = 2025-10-27T06:00:02.000160
MEAN_MOTION    = 15.42504119
ECCENTRICITY   = .00016257
INCLINATION    = 53.1586
RA_OF_ASC_NODE = 196.5974
ARG_OF_PERICENTER = 108.5188
MEAN_ANOMALY   = 71.7961

EPHEMERIS_TYPE = 0
CLASSIFICATION_TYPE = U
NORAD_CAT_ID   = 65856
ELEMENT_SET_NO = 999
REV_AT_EPOCH   = 501
BSTAR          = -.60681828E-1
MEAN_MOTION_DOT = -.2378228E-1
MEAN_MOTION_DDOT = 0

CCSDS_OMM_VERS = 2.0
CREATION_DATE  = 
ORIGINATOR     = 

OBJECT_NAME    = STARLINK-35489
OBJECT_ID      = 2025-223D
CENTER_NAME    = EARTH
REF_FRAME      = TEME
TIME_SYSTEM    = UTC
MEAN_ELEMENT_THEORY = SGP/SGP4

EPOCH          = 2025-10-27T06:40:45.482016
MEAN_MOTION    = 15.49341918
ECCENTRICITY   = .00012312
INCLINATION    = 53.1592
RA_OF_ASC_NODE = 196.4176
ARG_OF_PERICENTER = 99.1773
MEAN_ANOMALY   = 260.9375

EPHEMERIS_TYPE = 0
CLASSIFICATION_TYPE = U
NORAD_CAT_ID   = 65857
ELEMENT_SET_NO = 999
REV_AT_EPOCH   = 374
BSTAR          = .13020054E-2
MEAN_MOTION_DOT = .72725E-3
MEAN_MOTION_DDOT = 0

CCSDS_OMM_VERS = 2.0
CREATION_DATE  = 
ORIGINATOR     = 

OBJECT_NAME    = STARLINK-35199
OBJECT_ID      = 2025-223E
CENTER_NAME    = EARTH
REF_FRAME      = TEME
TIME_SYSTEM    = UTC
MEAN_ELEMENT_THEORY = SGP/SGP4

EPOCH          = 2025-10-27T05:07:27.820416
MEAN_MOTION    = 15.48882711
ECCENTRICITY   = .0001026
INCLINATION    = 53.1590
RA_OF_ASC_NODE = 196.7237
ARG_OF_PERICENTER = 108.8855
MEAN_ANOMALY   = 251.2266

EPHEMERIS_TYPE = 0
CLASSIFICATION_TYPE = U
NORAD_CAT_ID   = 65858
ELEMENT_SET_NO = 999
REV_AT_EPOCH   = 373
BSTAR          = -.51149759E-2
MEAN_MOTION_DOT = -.271177E-2
MEAN_MOTION_DDOT = 0

CCSDS_OMM_VERS = 2.0
CREATION_DATE  = 
ORIGINATOR     = 

OBJECT_NAME    = STARLINK-35408
OBJECT_ID      = 2025-223F
CENTER_NAME    = EARTH
REF_FRAME      = TEME
TIME_SYSTEM    = UTC
MEAN_ELEMENT_THEORY = SGP/SGP4

EPOCH          = 2025-10-27T06:00:02.000160
MEAN_MOTION    = 15.39581090
ECCENTRICITY   = .00012949
INCLINATION    = 53.1584
RA_OF_ASC_NODE = 196.6937
ARG_OF_PERICENTER = 92.9720
MEAN_ANOMALY   = 38.6378

EPHEMERIS_TYPE = 0
CLASSIFICATION_TYPE = U
NORAD_CAT_ID   = 65859
ELEMENT_SET_NO = 999
REV_AT_EPOCH   = 501
BSTAR          = .11991499E-2
MEAN_MOTION_DOT = .47805E-3
MEAN_MOTION_DDOT = 0

CCSDS_OMM_VERS = 2.0
CREATION_DATE  = 
ORIGINATOR     = 

OBJECT_NAME    = STARLINK-35303
OBJECT_ID      = 2025-223G
CENTER_NAME    = EARTH
REF_FRAME      = TEME
TIME_SYSTEM    = UTC
MEAN_ELEMENT_THEORY = SGP/SGP4

EPOCH          = 2025-10-27T06:00:02.000160
MEAN_MOTION    = 15.44331615
ECCENTRICITY   = .00011555
INCLINATION    = 53.1582
RA_OF_ASC_NODE = 196.5589
ARG_OF_PERICENTER = 79.7219
MEAN_ANOMALY   = 120.3158

EPHEMERIS_TYPE = 0
CLASSIFICATION_TYPE = U
NORAD_CAT_ID   = 65860
ELEMENT_SET_NO = 999
REV_AT_EPOCH   = 501
BSTAR          = -.49195462E-1
MEAN_MOTION_DOT = -.2048311E-1
MEAN_MOTION_DDOT = 0

CCSDS_OMM_VERS = 2.0
CREATION_DATE  = 
ORIGINATOR     = 

OBJECT_NAME    = STARLINK-35258
OBJECT_ID      = 2025-223H
CENTER_NAME    = EARTH
REF_FRAME      = TEME
TIME_SYSTEM    = UTC
MEAN_ELEMENT_THEORY = SGP/SGP4

EPOCH          = 2025-10-27T05:06:52.419744
MEAN_MOTION    = 15.49356041
ECCENTRICITY   = .0000146
INCLINATION    = 53.1587
RA_OF_ASC_NODE = 196.7203
ARG_OF_PERICENTER = 69.4227
MEAN_ANOMALY   = 290.6797

EPHEMERIS_TYPE = 0
CLASSIFICATION_TYPE = U
NORAD_CAT_ID   = 65861
ELEMENT_SET_NO = 999
REV_AT_EPOCH   = 373
BSTAR          = .18639958E-2
MEAN_MOTION_DOT = .104795E-2
MEAN_MOTION_DDOT = 0

CCSDS_OMM_VERS = 2.0
CREATION_DATE  = 
ORIGINATOR     = 

OBJECT_NAME    = STARLINK-35386
OBJECT_ID      = 2025-223J
CENTER_NAME    = EARTH
REF_FRAME      = TEME
TIME_SYSTEM    = UTC
MEAN_ELEMENT_THEORY = SGP/SGP4

EPOCH          = 2025-10-27T05:04:53.775264
MEAN_MOTION    = 15.49348657
ECCENTRICITY   = .00011167
INCLINATION    = 53.1592
RA_OF_ASC_NODE = 196.7113
ARG_OF_PERICENTER = 93.0338
MEAN_ANOMALY   = 267.0799

EPHEMERIS_TYPE = 0
CLASSIFICATION_TYPE = U
NORAD_CAT_ID   = 65862
ELEMENT_SET_NO = 999
REV_AT_EPOCH   = 373
BSTAR          = .105484E-2
MEAN_MOTION_DOT = .58742E-3
MEAN_MOTION_DDOT = 0

CCSDS_OMM_VERS = 2.0
CREATION_DATE  = 
ORIGINATOR     = 

OBJECT_NAME    = STARLINK-35469
OBJECT_ID      = 2025-223K
CENTER_NAME    = EARTH
REF_FRAME      = TEME
TIME_SYSTEM    = UTC
MEAN_ELEMENT_THEORY = SGP/SGP4

EPOCH          = 2025-10-27T06:00:02.000160
MEAN_MOTION    = 15.39575207
ECCENTRICITY   = .00012774
INCLINATION    = 53.1584
RA_OF_ASC_NODE = 196.6419
ARG_OF_PERICENTER = 95.3041
MEAN_ANOMALY   = 62.0907

EPHEMERIS_TYPE = 0
CLASSIFICATION_TYPE = U
NORAD_CAT_ID   = 65863
ELEMENT_SET_NO = 999
REV_AT_EPOCH   = 501
BSTAR          = .12817178E-2
MEAN_MOTION_DOT = .51137E-3
MEAN_MOTION_DDOT = 0

CCSDS_OMM_VERS = 2.0
CREATION_DATE  = 
ORIGINATOR     = 

OBJECT_NAME    = STARLINK-35471
OBJECT_ID      = 2025-223L
CENTER_NAME    = EARTH
REF_FRAME      = TEME
TIME_SYSTEM    = UTC
MEAN_ELEMENT_THEORY = SGP/SGP4

EPOCH          = 2025-10-27T06:37:17.697792
MEAN_MOTION    = 15.49339316
ECCENTRICITY   = .00011788
INCLINATION    = 53.1587
RA_OF_ASC_NODE = 196.4004
ARG_OF_PERICENTER = 94.2389
MEAN_ANOMALY   = 265.8754

EPHEMERIS_TYPE = 0
CLASSIFICATION_TYPE = U
NORAD_CAT_ID   = 65864
ELEMENT_SET_NO = 999
REV_AT_EPOCH   = 374
BSTAR          = .11857152E-2
MEAN_MOTION_DOT = .66127E-3
MEAN_MOTION_DDOT = 0

